start=new Date('2022-09-11T00:00:00.000Z').valueOf();
sats=[{"PERIAPSIS":"538.487","FILE":"3567066","EPOCH":"2022-09-10T05:20:23.616384","SEMIMAJOR_AXIS":"6917.886","MEAN_ELEMENT_THEORY":"SGP4","RCS_SIZE":"LARGE","ECCENTRICITY":"0.00018270","EPHEMERIS_TYPE":"0","PERIOD":"95.438","BSTAR":"-0.00002229600000","REV_AT_EPOCH":"4607","TLE_LINE1":"1 49456U 21104BA  22253.22249556 -.00000643  00000-0 -22296-4 0  9995","CENTER_NAME":"EARTH","NORAD_CAT_ID":"49456","MEAN_ANOMALY":"310.1192","COUNTRY_CODE":"US","RA_OF_ASC_NODE":"189.4141","OBJECT_NAME":"STARLINK-3124","MEAN_MOTION":"15.08838316","SITE":"AFETR","OBJECT_ID":"2021-104BA","CLASSIFICATION_TYPE":"U","REF_FRAME":"TEME","TIME_SYSTEM":"UTC","TLE_LINE2":"2 49456  53.2165 189.4141 0001827  49.9960 310.1192 15.08838316 46072","LAUNCH_DATE":"2021-11-13","MEAN_MOTION_DDOT":"0.0000000000000","ARG_OF_PERICENTER":"49.9960","GP_ID":"212227847","MEAN_MOTION_DOT":"-0.00000643","INCLINATION":"53.2165","OBJECT_TYPE":"PAYLOAD","DECAY_DATE":null,"ELEMENT_SET_NO":"999","APOAPSIS":"541.014"},{"FILE":"3567066","PERIAPSIS":"538.482","SEMIMAJOR_AXIS":"6917.883","EPOCH":"2022-09-10T05:04:29.393184","ECCENTRICITY":"0.00018300","RCS_SIZE":"LARGE","MEAN_ELEMENT_THEORY":"SGP4","EPHEMERIS_TYPE":"0","CENTER_NAME":"EARTH","TLE_LINE1":"1 49457U 21104BB  22253.21145131 -.00000479  00000-0 -12011-4 0  9990","REV_AT_EPOCH":"4607","BSTAR":"-0.00001201100000","PERIOD":"95.438","NORAD_CAT_ID":"49457","MEAN_MOTION":"15.08839034","RA_OF_ASC_NODE":"189.4670","OBJECT_NAME":"STARLINK-3132","MEAN_ANOMALY":"297.2966","COUNTRY_CODE":"US","CLASSIFICATION_TYPE":"U","SITE":"AFETR","OBJECT_ID":"2021-104BB","TLE_LINE2":"2 49457  53.2184 189.4670 0001830  62.8213 297.2966 15.08839034 46072","TIME_SYSTEM":"UTC","REF_FRAME":"TEME","GP_ID":"212229099","ARG_OF_PERICENTER":"62.8213","MEAN_MOTION_DDOT":"0.0000000000000","LAUNCH_DATE":"2021-11-13","INCLINATION":"53.2184","MEAN_MOTION_DOT":"-0.00000479","OBJECT_TYPE":"PAYLOAD","DECAY_DATE":null,"APOAPSIS":"541.014","ELEMENT_SET_NO":"999"},{"MEAN_MOTION":"15.08848627","RA_OF_ASC_NODE":"186.7527","OBJECT_NAME":"STARLINK-3156","MEAN_ANOMALY":"297.5118","COUNTRY_CODE":"US","NORAD_CAT_ID":"49458","CENTER_NAME":"EARTH","REV_AT_EPOCH":"4616","TLE_LINE1":"1 49458U 21104BC  22253.81496897  .00000504  00000-0  49739-4 0  9999","PERIOD":"95.437","BSTAR":"0.00004973900000","EPHEMERIS_TYPE":"0","ECCENTRICITY":"0.00020610","RCS_SIZE":"LARGE","MEAN_ELEMENT_THEORY":"SGP4","SEMIMAJOR_AXIS":"6917.854","EPOCH":"2022-09-10T19:33:33.319008","FILE":"3567798","PERIAPSIS":"538.293","APOAPSIS":"541.145","ELEMENT_SET_NO":"999","DECAY_DATE":null,"OBJECT_TYPE":"PAYLOAD","INCLINATION":"53.2177","MEAN_MOTION_DOT":"0.00000504","GP_ID":"212270737","ARG_OF_PERICENTER":"62.6084","MEAN_MOTION_DDOT":"0.0000000000000","LAUNCH_DATE":"2021-11-13","TLE_LINE2":"2 49458  53.2177 186.7527 0002061  62.6084 297.5118 15.08848627 46167","TIME_SYSTEM":"UTC","REF_FRAME":"TEME","CLASSIFICATION_TYPE":"U","SITE":"AFETR","OBJECT_ID":"2021-104BC"},{"EPHEMERIS_TYPE":"0","ECCENTRICITY":"0.00015940","MEAN_ELEMENT_THEORY":"SGP4","RCS_SIZE":"LARGE","EPOCH":"2022-09-10T08:09:57.427200","SEMIMAJOR_AXIS":"6917.864","FILE":"3567066","PERIAPSIS":"538.626","MEAN_MOTION":"15.08845306","COUNTRY_CODE":"US","MEAN_ANOMALY":"296.3871","RA_OF_ASC_NODE":"188.8853","OBJECT_NAME":"STARLINK-3141","NORAD_CAT_ID":"49459","REV_AT_EPOCH":"4609","TLE_LINE1":"1 49459U 21104BD  22253.34024800  .00000179  00000-0  29315-4 0  9995","CENTER_NAME":"EARTH","PERIOD":"95.437","BSTAR":"0.00002931500000","MEAN_MOTION_DDOT":"0.0000000000000","GP_ID":"212228097","ARG_OF_PERICENTER":"63.7285","LAUNCH_DATE":"2021-11-13","REF_FRAME":"TEME","TLE_LINE2":"2 49459  53.2165 188.8853 0001594  63.7285 296.3871 15.08845306 46091","TIME_SYSTEM":"UTC","CLASSIFICATION_TYPE":"U","SITE":"AFETR","OBJECT_ID":"2021-104BD","ELEMENT_SET_NO":"999","APOAPSIS":"540.832","DECAY_DATE":null,"OBJECT_TYPE":"PAYLOAD","MEAN_MOTION_DOT":"0.00000179","INCLINATION":"53.2165"},{"ELEMENT_SET_NO":"999","APOAPSIS":"540.976","DECAY_DATE":null,"OBJECT_TYPE":"PAYLOAD","MEAN_MOTION_DOT":"0.00000940","INCLINATION":"53.2159","MEAN_MOTION_DDOT":"0.0000000000000","ARG_OF_PERICENTER":"56.5843","GP_ID":"212228348","LAUNCH_DATE":"2021-11-13","REF_FRAME":"TEME","TLE_LINE2":"2 49460  53.2159 189.2056 0001816  56.5843 303.5323 15.08848245 46079","TIME_SYSTEM":"UTC","CLASSIFICATION_TYPE":"U","SITE":"AFETR","OBJECT_ID":"2021-104BE","MEAN_MOTION":"15.08848245","COUNTRY_CODE":"US","MEAN_ANOMALY":"303.5323","OBJECT_NAME":"STARLINK-3140","RA_OF_ASC_NODE":"189.2056","NORAD_CAT_ID":"49460","REV_AT_EPOCH":"4607","TLE_LINE1":"1 49460U 21104BE  22253.27032901  .00000940  00000-0  77110-4 0  9992","CENTER_NAME":"EARTH","BSTAR":"0.00007711000000","PERIOD":"95.437","EPHEMERIS_TYPE":"0","ECCENTRICITY":"0.00018160","MEAN_ELEMENT_THEORY":"SGP4","RCS_SIZE":"LARGE","EPOCH":"2022-09-10T06:29:16.426464","SEMIMAJOR_AXIS":"6917.855","FILE":"3567066","PERIAPSIS":"538.464"},{"ELEMENT_SET_NO":"999","APOAPSIS":"540.843","DECAY_DATE":null,"OBJECT_TYPE":"PAYLOAD","MEAN_MOTION_DOT":"-0.00000003","INCLINATION":"53.2173","MEAN_MOTION_DDOT":"0.0000000000000","GP_ID":"212243097","ARG_OF_PERICENTER":"73.0443","LAUNCH_DATE":"2021-12-02","REF_FRAME":"TEME","TIME_SYSTEM":"UTC","TLE_LINE2":"2 49724  53.2173 116.5935 0001580  73.0443 287.0722 15.08838466 44032","CLASSIFICATION_TYPE":"U","SITE":"AFETR","OBJECT_ID":"2021-115A","MEAN_MOTION":"15.08838466","MEAN_ANOMALY":"287.0722","COUNTRY_CODE":"US","OBJECT_NAME":"STARLINK-3219","RA_OF_ASC_NODE":"116.5935","NORAD_CAT_ID":"49724","TLE_LINE1":"1 49724U 21115A   22253.84812875 -.00000003  00000-0  17878-4 0  9992","REV_AT_EPOCH":"4403","CENTER_NAME":"EARTH","PERIOD":"95.438","BSTAR":"0.00001787800000","EPHEMERIS_TYPE":"0","ECCENTRICITY":"0.00015800","RCS_SIZE":"LARGE","MEAN_ELEMENT_THEORY":"SGP4","EPOCH":"2022-09-10T20:21:18.324000","SEMIMAJOR_AXIS":"6917.885","FILE":"3567581","PERIAPSIS":"538.657"},{"MEAN_MOTION_DOT":"0.00002775","INCLINATION":"53.2166","OBJECT_TYPE":"PAYLOAD","DECAY_DATE":null,"ELEMENT_SET_NO":"999","APOAPSIS":"540.802","SITE":"AFETR","OBJECT_ID":"2021-115B","CLASSIFICATION_TYPE":"U","REF_FRAME":"TEME","TLE_LINE2":"2 49725  53.2166 116.7545 0001444  58.2029 301.9104 15.08821264 42922","TIME_SYSTEM":"UTC","LAUNCH_DATE":"2021-12-02","MEAN_MOTION_DDOT":"0.0000000000000","GP_ID":"212270501","ARG_OF_PERICENTER":"58.2029","PERIOD":"95.439","BSTAR":"0.00019247000000","TLE_LINE1":"1 49725U 21115B   22253.81501880  .00002775  00000-0  19247-3 0  9999","REV_AT_EPOCH":"4292","CENTER_NAME":"EARTH","NORAD_CAT_ID":"49725","COUNTRY_CODE":"US","MEAN_ANOMALY":"301.9104","RA_OF_ASC_NODE":"116.7545","OBJECT_NAME":"STARLINK-3218","MEAN_MOTION":"15.08821264","PERIAPSIS":"538.804","FILE":"3567798","EPOCH":"2022-09-10T19:33:37.624320","SEMIMAJOR_AXIS":"6917.938","RCS_SIZE":"LARGE","MEAN_ELEMENT_THEORY":"SGP4","ECCENTRICITY":"0.00014440","EPHEMERIS_TYPE":"0"},{"OBJECT_TYPE":"PAYLOAD","MEAN_MOTION_DOT":"0.00003037","INCLINATION":"53.2167","ELEMENT_SET_NO":"999","APOAPSIS":"540.850","DECAY_DATE":null,"REF_FRAME":"TEME","TIME_SYSTEM":"UTC","TLE_LINE2":"2 49726  53.2167 126.6337 0001633  59.7906 300.3248 15.08848122 42781","SITE":"AFETR","OBJECT_ID":"2021-115C","CLASSIFICATION_TYPE":"U","LAUNCH_DATE":"2021-12-02","MEAN_MOTION_DDOT":"0.0000000000000","GP_ID":"212270753","ARG_OF_PERICENTER":"59.7906","NORAD_CAT_ID":"49726","PERIOD":"95.437","BSTAR":"0.00020881000000","REV_AT_EPOCH":"4278","TLE_LINE1":"1 49726U 21115C   22253.84257291  .00003037  00000-0  20881-3 0  9995","CENTER_NAME":"EARTH","MEAN_ANOMALY":"300.3248","COUNTRY_CODE":"US","OBJECT_NAME":"STARLINK-3237","RA_OF_ASC_NODE":"126.6337","MEAN_MOTION":"15.08848122","EPOCH":"2022-09-10T20:13:18.299424","SEMIMAJOR_AXIS":"6917.856","PERIAPSIS":"538.591","FILE":"3567798","EPHEMERIS_TYPE":"0","RCS_SIZE":"LARGE","MEAN_ELEMENT_THEORY":"SGP4","ECCENTRICITY":"0.00016330"},{"EPOCH":"2022-09-10T20:18:35.982720","SEMIMAJOR_AXIS":"6917.803","PERIAPSIS":"538.122","FILE":"3567798","EPHEMERIS_TYPE":"0","MEAN_ELEMENT_THEORY":"SGP4","RCS_SIZE":"LARGE","ECCENTRICITY":"0.00022350","NORAD_CAT_ID":"49727","BSTAR":"-0.00030388000000","PERIOD":"95.436","REV_AT_EPOCH":"4278","TLE_LINE1":"1 49727U 21115D   22253.84624980 -.00005125  00000-0 -30388-3 0  9994","CENTER_NAME":"EARTH","MEAN_ANOMALY":"294.2721","COUNTRY_CODE":"US","RA_OF_ASC_NODE":"126.6153","OBJECT_NAME":"STARLINK-3242","MEAN_MOTION":"15.08865383","REF_FRAME":"TEME","TLE_LINE2":"2 49727  53.2163 126.6153 0002235  65.8505 294.2721 15.08865383 42781","TIME_SYSTEM":"UTC","SITE":"AFETR","OBJECT_ID":"2021-115D","CLASSIFICATION_TYPE":"U","LAUNCH_DATE":"2021-12-02","MEAN_MOTION_DDOT":"0.0000000000000","GP_ID":"212271004","ARG_OF_PERICENTER":"65.8505","OBJECT_TYPE":"PAYLOAD","MEAN_MOTION_DOT":"-0.00005125","INCLINATION":"53.2163","ELEMENT_SET_NO":"999","APOAPSIS":"541.214","DECAY_DATE":null},{"LAUNCH_DATE":"2021-12-02","GP_ID":"212269752","ARG_OF_PERICENTER":"65.5706","MEAN_MOTION_DDOT":"0.0000000000000","TLE_LINE2":"2 49728  53.2161 126.5896 0001785  65.5706 294.5473 15.08826834 42787","TIME_SYSTEM":"UTC","REF_FRAME":"TEME","OBJECT_ID":"2021-115E","SITE":"AFETR","CLASSIFICATION_TYPE":"U","APOAPSIS":"541.020","ELEMENT_SET_NO":"999","DECAY_DATE":null,"OBJECT_TYPE":"PAYLOAD","INCLINATION":"53.2161","MEAN_MOTION_DOT":"0.00000976","EPHEMERIS_TYPE":"0","MEAN_ELEMENT_THEORY":"SGP4","RCS_SIZE":"LARGE","ECCENTRICITY":"0.00017850","SEMIMAJOR_AXIS":"6917.921","EPOCH":"2022-09-10T20:23:54.948192","PERIAPSIS":"538.551","FILE":"3567798","OBJECT_NAME":"STARLINK-3240","RA_OF_ASC_NODE":"126.5896","MEAN_ANOMALY":"294.5473","COUNTRY_CODE":"US","MEAN_MOTION":"15.08826834","NORAD_CAT_ID":"49728","BSTAR":"0.00007946200000","PERIOD":"95.438","CENTER_NAME":"EARTH","REV_AT_EPOCH":"4278","TLE_LINE1":"1 49728U 21115E   22253.84994153  .00000976  00000-0  79462-4 0  9991"}];
